KUIPER-00074            
1 64821U 25151F   25229.93814465  .00030490  00000+0  86786-3 0  9998
2 64821  51.8780 130.0829 0004786 266.2071  93.8368 15.35850358  5010
KUIPER-00075            
1 64822U 25151G   25229.93256702  .00031453  00000+0  86967-3 0  9994
2 64822  51.8772 130.0531 0004962 255.3659 104.6777 15.36739326  5016
KUIPER-00076            
1 64823U 25151H   25229.94062938  .00015527  00000+0  44957-3 0  9999
2 64823  51.8767 130.0985 0005036 259.4962 100.5457 15.35751361  5011
KUIPER-00077            
1 64824U 25151J   25229.94314816  .00024841  00000+0  71205-3 0  9990
2 64824  51.8792 130.1248 0005781 265.2382  94.7943 15.35737752  5013
KUIPER-00078            
1 64825U 25151K   25229.94249238  .00029874  00000+0  85279-3 0  9993
2 64825  51.8783 130.1141 0006025 271.3605  88.6691 15.35764605  5013
KUIPER-00079            
1 64826U 25151L   25229.91670139 -.00018048  00000+0 -63438-3 0  9995
2 64826  51.8791 130.3742 0004664 259.9962 239.4303 15.28286324  4549
KUIPER-00080            
1 64827U 25151M   25229.91670139 -.00018232  00000+0 -60281-3 0  9994
2 64827  51.8791 130.4088 0002891 287.4419 218.3701 15.30276836  5153
KUIPER-00082            
1 64828U 25151N   25229.93302327  .00032811  00000+0  92300-3 0  9992
2 64828  51.8776 130.0485 0005349 259.5521 100.4862 15.36178431  5011
KUIPER-00083            
1 64829U 25151P   25229.87611482  .00027087  00000+0  77335-3 0  9991
2 64829  51.8769 130.4163 0005538 264.2586  95.7769 15.35814815  6199
KUIPER-00084            
1 64830U 25151Q   25229.91670139 -.00018232  00000+0 -90196-3 0  9996
2 64830  51.8887 131.6527 0006956 249.9079 327.0609 15.16799844  4736
KUIPER-00085            
1 64831U 25151R   25229.93033568  .00029653  00000+0  83159-3 0  9996
2 64831  51.8787 130.0372 0006067 255.6212 104.4101 15.36323278  5015
KUIPER-00086            
1 64832U 25151S   25229.91670139 -.00008408  00000+0 -23850-3 0  9995
2 64832  51.8778 130.2758 0005837 270.2026 286.3074 15.34270461  4589
KUIPER-00087            
1 64833U 25151T   25229.93523706  .00032884  00000+0  92983-3 0  9991
2 64833  51.8779 130.0692 0005421 268.3484  91.6881 15.36016269  5019
KUIPER-00089            
1 64834U 25151U   25229.94135030  .00033221  00000+0  94593-3 0  9997
2 64834  51.8788 130.1123 0005588 272.8074  87.2273 15.35792111  5011
KUIPER-00090            
1 64835U 25151V   25229.94616242  .00023184  00000+0  66993-3 0  9997
2 64835  51.8774 130.1397 0005742 276.0581  83.9751 15.35526355  5010
KUIPER-00091            
1 64836U 25151W   25229.93231883  .00031284  00000+0  88255-3 0  9996
2 64836  51.8769 130.0462 0005552 251.4619 108.5764 15.36113162  5012
KUIPER-00092            
1 64837U 25151X   25229.93555064  .00025811  00000+0  73105-3 0  9994
2 64837  51.8767 130.0653 0005479 259.0080 101.0290 15.36092632  6221
KUIPER-00093            
1 64838U 25151Y   25229.94041882  .00037126  00000+0  10552-2 0  9992
2 64838  51.8788 130.1071 0005075 264.4127  95.6280 15.35797708  5012
KUIPER-00094            
1 64839U 25151Z   25228.76410977  .00036930  00000+0  10427-2 0  9990
2 64839  51.8765 135.7150 0005452 260.4492  99.5879 15.36005181  4831
